TEVEL2-8                
1 63239U 25052AF  26068.66815442  .00019130  00000+0  69304-3 0  9993
2 63239  97.4055 324.2923 0008031 124.9191 235.2804 15.28392908 54807
STARLINK-35857          
1 67186U 25303Z   26068.08108226  .00025447  00000+0  93067-3 0  9999
2 67186  43.0011 314.0191 0001100 308.1629  51.9124 15.27594448 12643
